STARLINK-36551          
1 67493U 26012A   26062.19081775  .00028494  00000+0  10403-2 0  9990
2 67493  43.0055 351.4824 0001603 247.6919 112.3763 15.27600181  6766
STARLINK-36396          
1 67494U 26012B   26062.17154142  .00041927  00000+0  15239-2 0  9996
2 67494  43.0010 351.3481 0001483 281.0899  78.9785 15.27592113  6767
STARLINK-36550          
1 67495U 26012C   26062.18310740  .00041024  00000+0  14908-2 0  9996
2 67495  43.0026 351.4278 0001430 258.4245 101.6446 15.27606522  6763
STARLINK-36534          
1 67496U 26012D   26062.17667910  .00028255  00000+0  10318-2 0  9992
2 67496  43.0031 351.3705 0002293 257.0703 102.9892 15.27597678  6766
STARLINK-36555          
1 67497U 26012E   26062.17925100  .00039394  00000+0  14331-2 0  9996
2 67497  43.0014 351.3904 0001170 262.9582  97.1137 15.27588518  6762
STARLINK-36081          
1 67498U 26012F   26062.17283272  .00040582  00000+0  14742-2 0  9991
2 67498  43.0005 351.3462 0001327 275.9331  84.1369 15.27622495  6768
STARLINK-36558          
1 67499U 26012G   26062.16897421  .00032392  00000+0  11808-2 0  9998
2 67499  43.0038 351.3151 0000946 285.8835  74.1913 15.27597607  6765
STARLINK-36557          
1 67500U 26012H   26062.16511563  .00047100  00000+0  17086-2 0  9998
2 67500  43.0008 351.2732 0001222 267.3387  92.7325 15.27610705  6762
STARLINK-36433          
1 67501U 26012J   26062.22664772  .00025836  00000+0  94494-3 0  9998
2 67501  42.9945 350.8764 0000571 308.7478  51.3322 15.27584949  6777
STARLINK-36552          
1 67503U 26012L   26062.21636797  .00039413  00000+0  14338-2 0  9999
2 67503  43.0005 350.7970 0001345 263.0493  97.0205 15.27586615  6775
STARLINK-36512          
1 67504U 26012M   26062.20865600  .00032174  00000+0  11732-2 0  9998
2 67504  43.0023 350.7406 0001777 253.2099 106.8558 15.27590664  6771
STARLINK-36545          
1 67505U 26012N   26062.20480376  .00027535  00000+0  10058-2 0  9997
2 67505  43.0021 350.7101 0001740 248.4933 111.5733 15.27600490  6772
STARLINK-36553          
1 67506U 26012P   26062.20094816  .00035509  00000+0  12914-2 0  9991
2 67506  43.0033 350.6789 0001913 273.5906  86.4727 15.27637658  6777
STARLINK-36521          
1 67507U 26012Q   26062.19837539  .00041109  00000+0  14946-2 0  9997
2 67507  43.0040 350.6601 0001710 268.8475  91.2181 15.27590864  6777
STARLINK-36526          
1 67508U 26012R   26062.12913482  .00030467  00000+0  11112-2 0  9990
2 67508  43.0038 350.9975 0001183 287.3235  72.7488 15.27606848  6769
STARLINK-36541          
1 67509U 26012S   26062.12414541  .00037486  00000+0  13643-2 0  9992
2 67509  43.0040 351.8528 0001642 252.8156 107.2516 15.27592102  6758
