[{"OBJECT_NAME":"STARLINK-36551","OBJECT_ID":"2026-012A","EPOCH":"2026-03-03T04:34:46.655328","MEAN_MOTION":15.27600181,"ECCENTRICITY":0.00016029,"INCLINATION":43.0055,"RA_OF_ASC_NODE":351.4824,"ARG_OF_PERICENTER":247.6919,"MEAN_ANOMALY":112.3763,"EPHEMERIS_TYPE":0,"CLASSIFICATION_TYPE":"U","NORAD_CAT_ID":67493,"ELEMENT_SET_NO":999,"REV_AT_EPOCH":676,"BSTAR":0.0010403424,"MEAN_MOTION_DOT":0.00028494,"MEAN_MOTION_DDOT":0},{"OBJECT_NAME":"STARLINK-36396","OBJECT_ID":"2026-012B","EPOCH":"2026-03-03T04:07:01.179552","MEAN_MOTION":15.27592113,"ECCENTRICITY":0.00014829,"INCLINATION":43.001,"RA_OF_ASC_NODE":351.3481,"ARG_OF_PERICENTER":281.0899,"MEAN_ANOMALY":78.9785,"EPHEMERIS_TYPE":0,"CLASSIFICATION_TYPE":"U","NORAD_CAT_ID":67494,"ELEMENT_SET_NO":999,"REV_AT_EPOCH":676,"BSTAR":0.0015239208,"MEAN_MOTION_DOT":0.00041927,"MEAN_MOTION_DDOT":0},{"OBJECT_NAME":"STARLINK-36550","OBJECT_ID":"2026-012C","EPOCH":"2026-03-03T04:23:40.479360","MEAN_MOTION":15.27606522,"ECCENTRICITY":0.000143,"INCLINATION":43.0026,"RA_OF_ASC_NODE":351.4278,"ARG_OF_PERICENTER":258.4245,"MEAN_ANOMALY":101.6446,"EPHEMERIS_TYPE":0,"CLASSIFICATION_TYPE":"U","NORAD_CAT_ID":67495,"ELEMENT_SET_NO":999,"REV_AT_EPOCH":676,"BSTAR":0.0014908137,"MEAN_MOTION_DOT":0.00041024,"MEAN_MOTION_DDOT":0},{"OBJECT_NAME":"STARLINK-36534","OBJECT_ID":"2026-012D","EPOCH":"2026-03-03T04:14:25.075104","MEAN_MOTION":15.27597678,"ECCENTRICITY":0.00022927,"INCLINATION":43.0031,"RA_OF_ASC_NODE":351.3705,"ARG_OF_PERICENTER":257.0703,"MEAN_ANOMALY":102.9892,"EPHEMERIS_TYPE":0,"CLASSIFICATION_TYPE":"U","NORAD_CAT_ID":67496,"ELEMENT_SET_NO":999,"REV_AT_EPOCH":676,"BSTAR":0.0010317819,"MEAN_MOTION_DOT":0.00028255,"MEAN_MOTION_DDOT":0},{"OBJECT_NAME":"STARLINK-36555","OBJECT_ID":"2026-012E","EPOCH":"2026-03-03T04:18:07.286400","MEAN_MOTION":15.27588518,"ECCENTRICITY":0.00011702,"INCLINATION":43.0014,"RA_OF_ASC_NODE":351.3904,"ARG_OF_PERICENTER":262.9582,"MEAN_ANOMALY":97.1137,"EPHEMERIS_TYPE":0,"CLASSIFICATION_TYPE":"U","NORAD_CAT_ID":67497,"ELEMENT_SET_NO":999,"REV_AT_EPOCH":676,"BSTAR":0.0014330713,"MEAN_MOTION_DOT":0.00039394,"MEAN_MOTION_DDOT":0},{"OBJECT_NAME":"STARLINK-36081","OBJECT_ID":"2026-012F","EPOCH":"2026-03-03T04:08:52.747872","MEAN_MOTION":15.27622495,"ECCENTRICITY":0.00013271,"INCLINATION":43.0005,"RA_OF_ASC_NODE":351.3462,"ARG_OF_PERICENTER":275.9331,"MEAN_ANOMALY":84.1369,"EPHEMERIS_TYPE":0,"CLASSIFICATION_TYPE":"U","NORAD_CAT_ID":67498,"ELEMENT_SET_NO":999,"REV_AT_EPOCH":676,"BSTAR":0.0014742338,"MEAN_MOTION_DOT":0.00040582,"MEAN_MOTION_DDOT":0},{"OBJECT_NAME":"STARLINK-36558","OBJECT_ID":"2026-012G","EPOCH":"2026-03-03T04:03:19.372608","MEAN_MOTION":15.27597607,"ECCENTRICITY":9.458e-5,"INCLINATION":43.0038,"RA_OF_ASC_NODE":351.3151,"ARG_OF_PERICENTER":285.8835,"MEAN_ANOMALY":74.1913,"EPHEMERIS_TYPE":0,"CLASSIFICATION_TYPE":"U","NORAD_CAT_ID":67499,"ELEMENT_SET_NO":999,"REV_AT_EPOCH":676,"BSTAR":0.0011808315,"MEAN_MOTION_DOT":0.00032392,"MEAN_MOTION_DDOT":0},{"OBJECT_NAME":"STARLINK-36557","OBJECT_ID":"2026-012H","EPOCH":"2026-03-03T03:57:45.990432","MEAN_MOTION":15.27610705,"ECCENTRICITY":0.00012219,"INCLINATION":43.0008,"RA_OF_ASC_NODE":351.2732,"ARG_OF_PERICENTER":267.3387,"MEAN_ANOMALY":92.7325,"EPHEMERIS_TYPE":0,"CLASSIFICATION_TYPE":"U","NORAD_CAT_ID":67500,"ELEMENT_SET_NO":999,"REV_AT_EPOCH":676,"BSTAR":0.0017086011,"MEAN_MOTION_DOT":0.000471,"MEAN_MOTION_DDOT":0},{"OBJECT_NAME":"STARLINK-36433","OBJECT_ID":"2026-012J","EPOCH":"2026-03-03T05:26:22.363872","MEAN_MOTION":15.27584949,"ECCENTRICITY":5.705e-5,"INCLINATION":42.9945,"RA_OF_ASC_NODE":350.8764,"ARG_OF_PERICENTER":308.7478,"MEAN_ANOMALY":51.3322,"EPHEMERIS_TYPE":0,"CLASSIFICATION_TYPE":"U","NORAD_CAT_ID":67501,"ELEMENT_SET_NO":999,"REV_AT_EPOCH":677,"BSTAR":0.00094494302,"MEAN_MOTION_DOT":0.00025836,"MEAN_MOTION_DDOT":0},{"OBJECT_NAME":"STARLINK-36552","OBJECT_ID":"2026-012L","EPOCH":"2026-03-03T05:11:34.192608","MEAN_MOTION":15.27586615,"ECCENTRICITY":0.00013452,"INCLINATION":43.0005,"RA_OF_ASC_NODE":350.797,"ARG_OF_PERICENTER":263.0493,"MEAN_ANOMALY":97.0205,"EPHEMERIS_TYPE":0,"CLASSIFICATION_TYPE":"U","NORAD_CAT_ID":67503,"ELEMENT_SET_NO":999,"REV_AT_EPOCH":677,"BSTAR":0.0014338195,"MEAN_MOTION_DOT":0.00039413,"MEAN_MOTION_DDOT":0},{"OBJECT_NAME":"STARLINK-36512","OBJECT_ID":"2026-012M","EPOCH":"2026-03-03T05:00:27.879264","MEAN_MOTION":15.27590664,"ECCENTRICITY":0.00017765,"INCLINATION":43.0023,"RA_OF_ASC_NODE":350.7406,"ARG_OF_PERICENTER":253.2099,"MEAN_ANOMALY":106.8558,"EPHEMERIS_TYPE":0,"CLASSIFICATION_TYPE":"U","NORAD_CAT_ID":67504,"ELEMENT_SET_NO":999,"REV_AT_EPOCH":677,"BSTAR":0.0011732105,"MEAN_MOTION_DOT":0.00032174,"MEAN_MOTION_DDOT":0},{"OBJECT_NAME":"STARLINK-36545","OBJECT_ID":"2026-012N","EPOCH":"2026-03-03T04:54:55.045728","MEAN_MOTION":15.2760049,"ECCENTRICITY":0.000174,"INCLINATION":43.0021,"RA_OF_ASC_NODE":350.7101,"ARG_OF_PERICENTER":248.4933,"MEAN_ANOMALY":111.5733,"EPHEMERIS_TYPE":0,"CLASSIFICATION_TYPE":"U","NORAD_CAT_ID":67505,"ELEMENT_SET_NO":999,"REV_AT_EPOCH":677,"BSTAR":0.0010057561,"MEAN_MOTION_DOT":0.00027535,"MEAN_MOTION_DDOT":0},{"OBJECT_NAME":"STARLINK-36553","OBJECT_ID":"2026-012P","EPOCH":"2026-03-03T04:49:21.921024","MEAN_MOTION":15.27637658,"ECCENTRICITY":0.00019128,"INCLINATION":43.0033,"RA_OF_ASC_NODE":350.6789,"ARG_OF_PERICENTER":273.5906,"MEAN_ANOMALY":86.4727,"EPHEMERIS_TYPE":0,"CLASSIFICATION_TYPE":"U","NORAD_CAT_ID":67506,"ELEMENT_SET_NO":999,"REV_AT_EPOCH":677,"BSTAR":0.0012914217,"MEAN_MOTION_DOT":0.00035509,"MEAN_MOTION_DDOT":0},{"OBJECT_NAME":"STARLINK-36521","OBJECT_ID":"2026-012Q","EPOCH":"2026-03-03T04:45:39.634560","MEAN_MOTION":15.27590864,"ECCENTRICITY":0.00017105,"INCLINATION":43.004,"RA_OF_ASC_NODE":350.6601,"ARG_OF_PERICENTER":268.8475,"MEAN_ANOMALY":91.2181,"EPHEMERIS_TYPE":0,"CLASSIFICATION_TYPE":"U","NORAD_CAT_ID":67507,"ELEMENT_SET_NO":999,"REV_AT_EPOCH":677,"BSTAR":0.0014945839,"MEAN_MOTION_DOT":0.00041109,"MEAN_MOTION_DDOT":0},{"OBJECT_NAME":"STARLINK-36526","OBJECT_ID":"2026-012R","EPOCH":"2026-03-03T03:05:57.248448","MEAN_MOTION":15.27606848,"ECCENTRICITY":0.00011833,"INCLINATION":43.0038,"RA_OF_ASC_NODE":350.9975,"ARG_OF_PERICENTER":287.3235,"MEAN_ANOMALY":72.7488,"EPHEMERIS_TYPE":0,"CLASSIFICATION_TYPE":"U","NORAD_CAT_ID":67508,"ELEMENT_SET_NO":999,"REV_AT_EPOCH":676,"BSTAR":0.0011111903,"MEAN_MOTION_DOT":0.00030467,"MEAN_MOTION_DDOT":0},{"OBJECT_NAME":"STARLINK-36541","OBJECT_ID":"2026-012S","EPOCH":"2026-03-03T02:58:46.163424","MEAN_MOTION":15.27592102,"ECCENTRICITY":0.00016424,"INCLINATION":43.004,"RA_OF_ASC_NODE":351.8528,"ARG_OF_PERICENTER":252.8156,"MEAN_ANOMALY":107.2516,"EPHEMERIS_TYPE":0,"CLASSIFICATION_TYPE":"U","NORAD_CAT_ID":67509,"ELEMENT_SET_NO":999,"REV_AT_EPOCH":675,"BSTAR":0.0013643178,"MEAN_MOTION_DOT":0.00037486,"MEAN_MOTION_DDOT":0}]
